{"fetched_at":"2026-07-12T17:33:08.321Z","source":"https://celestrak.org/NORAD/elements/gp.php?NAME=STRIX&FORMAT=JSON","constellation":"synspective","records":[{"OBJECT_NAME":"STRIX-1","OBJECT_ID":"2022-113A","EPOCH":"2026-07-12T10:54:37.527264","CLASSIFICATION_TYPE":"U","MEAN_MOTION":15.40918359,"ECCENTRICITY":0.0005392,"INCLINATION":97.4487,"RA_OF_ASC_NODE":255.9461,"ARG_OF_PERICENTER":139.188,"MEAN_ANOMALY":220.9771,"EPHEMERIS_TYPE":0,"NORAD_CAT_ID":53815,"ELEMENT_SET_NO":999,"REV_AT_EPOCH":21133,"BSTAR":0.00038096,"MEAN_MOTION_DOT":0.00015599,"MEAN_MOTION_DDOT":0},{"OBJECT_NAME":"STRIX-3","OBJECT_ID":"2024-047A","EPOCH":"2026-07-12T12:43:42.944160","CLASSIFICATION_TYPE":"U","MEAN_MOTION":15.19784168,"ECCENTRICITY":0.0012281,"INCLINATION":97.6628,"RA_OF_ASC_NODE":169.5878,"ARG_OF_PERICENTER":344.563,"MEAN_ANOMALY":15.5228,"EPHEMERIS_TYPE":0,"NORAD_CAT_ID":59224,"ELEMENT_SET_NO":999,"REV_AT_EPOCH":12859,"BSTAR":0.00024304,"MEAN_MOTION_DOT":0.0000514,"MEAN_MOTION_DDOT":0},{"OBJECT_NAME":"STRIX-4","OBJECT_ID":"2024-137A","EPOCH":"2026-07-12T07:19:52.212288","CLASSIFICATION_TYPE":"U","MEAN_MOTION":15.33250379,"ECCENTRICITY":0.0015818,"INCLINATION":43.0145,"RA_OF_ASC_NODE":142.0231,"ARG_OF_PERICENTER":111.5298,"MEAN_ANOMALY":248.7243,"EPHEMERIS_TYPE":0,"NORAD_CAT_ID":60352,"ELEMENT_SET_NO":999,"REV_AT_EPOCH":10787,"BSTAR":0.00029874,"MEAN_MOTION_DOT":0.00009568,"MEAN_MOTION_DDOT":0},{"OBJECT_NAME":"STRIX-2","OBJECT_ID":"2024-248A","EPOCH":"2026-07-12T12:51:28.221120","CLASSIFICATION_TYPE":"U","MEAN_MOTION":15.09176879,"ECCENTRICITY":0.0013527,"INCLINATION":97.6296,"RA_OF_ASC_NODE":149.0345,"ARG_OF_PERICENTER":245.7931,"MEAN_ANOMALY":114.1885,"EPHEMERIS_TYPE":0,"NORAD_CAT_ID":62406,"ELEMENT_SET_NO":999,"REV_AT_EPOCH":8541,"BSTAR":0.0001925,"MEAN_MOTION_DOT":0.00002999,"MEAN_MOTION_DDOT":0},{"OBJECT_NAME":"STRIX-5","OBJECT_ID":"2025-229A","EPOCH":"2026-07-12T06:18:52.818912","CLASSIFICATION_TYPE":"U","MEAN_MOTION":15.04576592,"ECCENTRICITY":0.0037569,"INCLINATION":41.9269,"RA_OF_ASC_NODE":148.3292,"ARG_OF_PERICENTER":218.7637,"MEAN_ANOMALY":141.0492,"EPHEMERIS_TYPE":0,"NORAD_CAT_ID":65971,"ELEMENT_SET_NO":999,"REV_AT_EPOCH":4075,"BSTAR":0.00012932,"MEAN_MOTION_DOT":0.00001676,"MEAN_MOTION_DDOT":0},{"OBJECT_NAME":"STRIX-6","OBJECT_ID":"2026-056A","EPOCH":"2026-07-12T02:31:54.789600","CLASSIFICATION_TYPE":"U","MEAN_MOTION":15.00320808,"ECCENTRICITY":0.00165845,"INCLINATION":50.2816,"RA_OF_ASC_NODE":231.9915,"ARG_OF_PERICENTER":339.2721,"MEAN_ANOMALY":20.7554,"EPHEMERIS_TYPE":0,"NORAD_CAT_ID":68291,"ELEMENT_SET_NO":999,"REV_AT_EPOCH":1701,"BSTAR":0.00012322905,"MEAN_MOTION_DOT":0.00001299,"MEAN_MOTION_DDOT":0},{"OBJECT_NAME":"STRIX-7","OBJECT_ID":"2026-112A","EPOCH":"2026-07-12T12:29:40.966656","CLASSIFICATION_TYPE":"U","MEAN_MOTION":15.01596856,"ECCENTRICITY":0.0024435,"INCLINATION":44.908,"RA_OF_ASC_NODE":59.3778,"ARG_OF_PERICENTER":193.1221,"MEAN_ANOMALY":166.9018,"EPHEMERIS_TYPE":0,"NORAD_CAT_ID":69177,"ELEMENT_SET_NO":999,"REV_AT_EPOCH":768,"BSTAR":0.00018104,"MEAN_MOTION_DOT":0.00002164,"MEAN_MOTION_DDOT":0},{"OBJECT_NAME":"STRIX-8","OBJECT_ID":"2026-146A","EPOCH":"2026-07-12T13:31:07.576032","CLASSIFICATION_TYPE":"U","MEAN_MOTION":15.04420784,"ECCENTRICITY":0.0007595,"INCLINATION":41.9901,"RA_OF_ASC_NODE":27.6726,"ARG_OF_PERICENTER":4.5474,"MEAN_ANOMALY":355.5421,"EPHEMERIS_TYPE":0,"NORAD_CAT_ID":69701,"ELEMENT_SET_NO":999,"REV_AT_EPOCH":238,"BSTAR":0.00019726,"MEAN_MOTION_DOT":0.00002614,"MEAN_MOTION_DDOT":0}]}
