STRIX-1                 
1 53815U 22113A   26193.45460101  .00015599  00000+0  38096-3 0  9990
2 53815  97.4487 255.9461 0005392 139.1880 220.9771 15.40918359211337
STRIX-3                 
1 59224U 24047A   26193.53035815  .00005140  00000+0  24304-3 0  9995
2 59224  97.6628 169.5878 0012281 344.5630  15.5228 15.19784168128593
STRIX-4                 
1 60352U 24137A   26193.30546542  .00009568  00000+0  29874-3 0  9993
2 60352  43.0145 142.0231 0015818 111.5298 248.7243 15.33250379107879
STRIX-2                 
1 62406U 24248A   26193.53574330  .00002999  00000+0  19250-3 0  9997
2 62406  97.6296 149.0345 0013527 245.7931 114.1885 15.09176879 85413
STRIX-5                 
1 65971U 25229A   26193.26311133  .00001676  00000+0  12932-3 0  9998
2 65971  41.9269 148.3292 0037569 218.7637 141.0492 15.04576592 40755
STRIX-6                 
1 68291U 26056A   26193.10549525  .00001299  00000+0  12323-3 0  9991
2 68291  50.2816 231.9915 0016584 339.2721  20.7554 15.00320808 17010
STRIX-7                 
1 69177U 26112A   26193.52061304  .00002164  00000+0  18104-3 0  9993
2 69177  44.9080  59.3778 0024435 193.1221 166.9018 15.01596856  7681
STRIX-8                 
1 69701U 26146A   26193.56328213  .00002614  00000+0  19726-3 0  9993
2 69701  41.9901  27.6726 0007595   4.5474 355.5421 15.04420784  2382
